SITRO-AIS 28            
1 59071U 24039U   24181.81409325  .00008405  00000+0  80299-3 0  9995
2 59071  95.4026 105.9403 0168516 299.8650  58.5915 14.83234331 17988
